ONEWEB-0597             
1 54663U 22166X   24197.88357995  .00000041  00000+0  66569-4 0  9998
2 54663  87.9283  23.5834 0002152  93.0181 267.1199 13.21825699 79366
ONEWEB-0600             
1 54664U 22166Y   24197.79053733  .00000067  00000+0  12969-3 0  9994
2 54664  87.9277  23.6406 0002019  90.0184 270.1182 13.21825599 78856
ONEWEB-0601             
1 54665U 22166Z   24197.93404061  .00000079  00000+0  15967-3 0  9999
2 54665  87.9285  23.5784 0002183 100.9699 259.1680 13.21824673 79064
ONEWEB-0602             
1 54666U 22166AA  24197.89933898 -.00000026  00000+0 -94898-4 0  9995
2 54666  87.9283  23.5890 0002138  94.5474 265.5904 13.21823942 78900
ONEWEB-0603             
1 54667U 22166AB  24197.90406953 -.00000020  00000+0 -81127-4 0  9990
2 54667  87.9286  23.5901 0002180  95.2758 264.8625 13.21823660 78838
ONEWEB-0604             
1 54668U 22166AC  24197.89146956 -.00000041  00000+0 -13062-3 0  9998
2 54668  87.9279  23.5701 0002025  82.5386 277.5978 13.21826051 78797
ONEWEB-0605             
1 54669U 22166AD  24197.88514926 -.00000014  00000+0 -66534-4 0  9997
2 54669  87.9277  23.6039 0002222 104.8858 255.2522 13.21824429 79338
ONEWEB-0606             
1 54670U 22166AE  24197.90722364  .00000019  00000+0  15040-4 0  9998
2 54670  87.9282  23.5914 0001686  86.1513 273.9813 13.21824225 78928
